{"type": "FeatureCollection", "features": [ {"type": "Feature", "properties": {"norad_id": 35701, "name": "COSMOS 2251 DEB", "group": "cosmos-2251-debris", "lat": 23.832841185186748, "lon": 111.95717115430588, "alt_km": 748.5898576250684, "timestamp": "2025-12-14T14:39:29.765588+00:00", "meta": {"OBJECT_NAME": "COSMOS 2251 DEB", "OBJECT_ID": "1993-036APW", "EPOCH": "2025-12-06T05:57:57.623904", "MEAN_MOTION": 13.80843435, "ECCENTRICITY": 0.02897209, "INCLINATION": 74.0028, "RA_OF_ASC_NODE": 313.2955, "ARG_OF_PERICENTER": 164.0681, "MEAN_ANOMALY": 196.98, "EPHEMERIS_TYPE": 0, "CLASSIFICATION_TYPE": "U", "NORAD_CAT_ID": 35701, "ELEMENT_SET_NO": 999, "REV_AT_EPOCH": 62069, "BSTAR": 0.0021223911, "MEAN_MOTION_DOT": 3.05e-05, "MEAN_MOTION_DDOT": 0}, "tle": {"line1": "1 35701U 93036APW 25340.24858361  .00003050  00000+0  21224-2 0  9998", "line2": "2 35701  74.0028 313.2955 0289720 164.0681 196.9800 13.80843435620696"}}, "geometry": {"type": "Point", "coordinates": [111.95717115430588, 23.832841185186748]}}, {"type": "Feature", "properties": {"norad_id": 35703, "name": "COSMOS 2251 DEB", "group": "cosmos-2251-debris", "lat": -9.630988558414215, "lon": -138.1960283263823, "alt_km": 593.6184811895328, "timestamp": "2025-12-14T14:39:29.765598+00:00", "meta": {"OBJECT_NAME": "COSMOS 2251 DEB", "OBJECT_ID": "1993-036APY", "EPOCH": "2025-12-13T10:25:41.808288", "MEAN_MOTION": 14.90369832, "ECCENTRICITY": 0.0064635, "INCLINATION": 74.0427, "RA_OF_ASC_NODE": 41.374, "ARG_OF_PERICENTER": 111.0276, "MEAN_ANOMALY": 249.7836, "EPHEMERIS_TYPE": 0, "CLASSIFICATION_TYPE": "U", "NORAD_CAT_ID": 35703, "ELEMENT_SET_NO": 999, "REV_AT_EPOCH": 66626, "BSTAR": 0.0011888649, "MEAN_MOTION_DOT": 0.00012023, "MEAN_MOTION_DDOT": 0}, "tle": {"line1": "1 35703U 93036APY 25347.43451167  .00012023  00000+0  11889-2 0  9997", "line2": "2 35703  74.0427  41.3740 0064635 111.0276 249.7836 14.90369832666265"}}, "geometry": {"type": "Point", "coordinates": [-138.1960283263823, -9.630988558414215]}}, {"type": "Feature", "properties": {"norad_id": 35705, "name": "COSMOS 2251 DEB", "group": "cosmos-2251-debris", "lat": -29.535574351585517, "lon": -38.58455066375633, "alt_km": 674.0662379296073, "timestamp": "2025-12-14T14:39:29.765608+00:00", "meta": {"OBJECT_NAME": "COSMOS 2251 DEB", "OBJECT_ID": "1993-036AQA", "EPOCH": "2025-12-13T16:30:25.570944", "MEAN_MOTION": 14.72285684, "ECCENTRICITY": 0.00330748, "INCLINATION": 74.2763, "RA_OF_ASC_NODE": 133.9994, "ARG_OF_PERICENTER": 83.0917, "MEAN_ANOMALY": 277.4017, "EPHEMERIS_TYPE": 0, "CLASSIFICATION_TYPE": "U", "NORAD_CAT_ID": 35705, "ELEMENT_SET_NO": 999, "REV_AT_EPOCH": 85940, "BSTAR": 0.003032246, "MEAN_MOTION_DOT": 0.00019351, "MEAN_MOTION_DDOT": 0}, "tle": {"line1": "1 35705U 93036AQA 25347.68779596  .00019351  00000+0  30322-2 0  9999", "line2": "2 35705  74.2763 133.9994 0033074  83.0917 277.4017 14.72285684859405"}}, "geometry": {"type": "Point", "coordinates": [-38.58455066375633, -29.535574351585517]}}, {"type": "Feature", "properties": {"norad_id": 35706, "name": "COSMOS 2251 DEB", "group": "cosmos-2251-debris", "lat": 60.64169180004511, "lon": -151.19876157874165, "alt_km": 757.128048755073, "timestamp": "2025-12-14T14:39:29.765618+00:00", "meta": {"OBJECT_NAME": "COSMOS 2251 DEB", "OBJECT_ID": "1993-036AQB", "EPOCH": "2025-12-11T12:17:37.968864", "MEAN_MOTION": 13.65920781, "ECCENTRICITY": 0.03407993, "INCLINATION": 73.8889, "RA_OF_ASC_NODE": 64.8358, "ARG_OF_PERICENTER": 114.8803, "MEAN_ANOMALY": 248.8145, "EPHEMERIS_TYPE": 0, "CLASSIFICATION_TYPE": "U", "NORAD_CAT_ID": 35706, "ELEMENT_SET_NO": 999, "REV_AT_EPOCH": 62045, "BSTAR": 0.0015097542, "MEAN_MOTION_DOT": 1.827e-05, "MEAN_MOTION_DDOT": 0}, "tle": {"line1": "1 35706U 93036AQB 25345.51224501  .00001827  00000+0  15098-2 0  9993", "line2": "2 35706  73.8889  64.8358 0340799 114.8803 248.8145 13.65920781620458"}}, "geometry": {"type": "Point", "coordinates": [-151.19876157874165, 60.64169180004511]}}, {"type": "Feature", "properties": {"norad_id": 35711, "name": "COSMOS 2251 DEB", "group": "cosmos-2251-debris", "lat": 50.0366358878441, "lon": 16.90882549783095, "alt_km": 735.3038429931048, "timestamp": "2025-12-14T14:39:29.765628+00:00", "meta": {"OBJECT_NAME": "COSMOS 2251 DEB", "OBJECT_ID": "1993-036AQG", "EPOCH": "2025-12-13T21:40:31.237248", "MEAN_MOTION": 14.63806104, "ECCENTRICITY": 0.00854278, "INCLINATION": 74.0455, "RA_OF_ASC_NODE": 218.2268, "ARG_OF_PERICENTER": 318.9377, "MEAN_ANOMALY": 40.5379, "EPHEMERIS_TYPE": 0, "CLASSIFICATION_TYPE": "U", "NORAD_CAT_ID": 35711, "ELEMENT_SET_NO": 999, "REV_AT_EPOCH": 87788, "BSTAR": 0.00030192752, "MEAN_MOTION_DOT": 1.628e-05, "MEAN_MOTION_DDOT": 0}, "tle": {"line1": "1 35711U 93036AQG 25347.90313932  .00001628  00000+0  30193-3 0  9994", "line2": "2 35711  74.0455 218.2268 0085427 318.9377  40.5379 14.63806104877886"}}, "geometry": {"type": "Point", "coordinates": [16.90882549783095, 50.0366358878441]}}, {"type": "Feature", "properties": {"norad_id": 35716, "name": "COSMOS 2251 DEB", "group": "cosmos-2251-debris", "lat": -1.957626545190874, "lon": 11.187075962512282, "alt_km": 750.339494087405, "timestamp": "2025-12-14T14:39:29.765637+00:00", "meta": {"OBJECT_NAME": "COSMOS 2251 DEB", "OBJECT_ID": "1993-036AQM", "EPOCH": "2025-12-10T22:58:34.278816", "MEAN_MOTION": 14.60083428, "ECCENTRICITY": 0.0088633, "INCLINATION": 73.9924, "RA_OF_ASC_NODE": 197.6138, "ARG_OF_PERICENTER": 39.0207, "MEAN_ANOMALY": 26.7611, "EPHEMERIS_TYPE": 0, "CLASSIFICATION_TYPE": "U", "NORAD_CAT_ID": 35716, "ELEMENT_SET_NO": 999, "REV_AT_EPOCH": 87601, "BSTAR": 0.00015815, "MEAN_MOTION_DOT": 7.71e-06, "MEAN_MOTION_DDOT": 0}, "tle": {"line1": "1 35716U 93036AQM 25344.95734119  .00000771  00000+0  15815-3 0  9997", "line2": "2 35716  73.9924 197.6138 0088633  39.0207  26.7611 14.60083428876013"}}, "geometry": {"type": "Point", "coordinates": [11.187075962512282, -1.957626545190874]}}, {"type": "Feature", "properties": {"norad_id": 35717, "name": "COSMOS 2251 DEB", "group": "cosmos-2251-debris", "lat": 13.185369317654324, "lon": 30.261796672833967, "alt_km": 766.6261038418797, "timestamp": "2025-12-14T14:39:29.765647+00:00", "meta": {"OBJECT_NAME": "COSMOS 2251 DEB", "OBJECT_ID": "1993-036AQN", "EPOCH": "2025-12-11T09:07:06.227616", "MEAN_MOTION": 14.38476212, "ECCENTRICITY": 0.00768139, "INCLINATION": 74.1604, "RA_OF_ASC_NODE": 219.9837, "ARG_OF_PERICENTER": 79.9617, "MEAN_ANOMALY": 281.0194, "EPHEMERIS_TYPE": 0, "CLASSIFICATION_TYPE": "U", "NORAD_CAT_ID": 35717, "ELEMENT_SET_NO": 999, "REV_AT_EPOCH": 74080, "BSTAR": 0.0019460313, "MEAN_MOTION_DOT": 6.131e-05, "MEAN_MOTION_DDOT": 0}, "tle": {"line1": "1 35717U 93036AQN 25345.37993319  .00006131  00000+0  19460-2 0  9999", "line2": "2 35717  74.1604 219.9837 0076813  79.9617 281.0194 14.38476212740802"}}, "geometry": {"type": "Point", "coordinates": [30.261796672833967, 13.185369317654324]}}, {"type": "Feature", "properties": {"norad_id": 35718, "name": "COSMOS 2251 DEB", "group": "cosmos-2251-debris", "lat": 63.259702239326856, "lon": -88.28072469756901, "alt_km": 655.1379832412704, "timestamp": "2025-12-14T14:39:29.765657+00:00", "meta": {"OBJECT_NAME": "COSMOS 2251 DEB", "OBJECT_ID": "1993-036AQP", "EPOCH": "2025-12-12T03:17:53.201184", "MEAN_MOTION": 14.68638717, "ECCENTRICITY": 0.00109549, "INCLINATION": 74.0319, "RA_OF_ASC_NODE": 131.1364, "ARG_OF_PERICENTER": 179.8219, "MEAN_ANOMALY": 180.2958, "EPHEMERIS_TYPE": 0, "CLASSIFICATION_TYPE": "U", "NORAD_CAT_ID": 35718, "ELEMENT_SET_NO": 999, "REV_AT_EPOCH": 65831, "BSTAR": 0.002396412, "MEAN_MOTION_DOT": 0.00013946, "MEAN_MOTION_DDOT": 0}, "tle": {"line1": "1 35718U 93036AQP 25346.13742131  .00013946  00000+0  23964-2 0  9995", "line2": "2 35718  74.0319 131.1364 0010954 179.8219 180.2958 14.68638717658312"}}, "geometry": {"type": "Point", "coordinates": [-88.28072469756901, 63.259702239326856]}}, {"type": "Feature", "properties": {"norad_id": 35721, "name": "COSMOS 2251 DEB", "group": "cosmos-2251-debris", "lat": -71.46235100388476, "lon": 53.45122994723401, "alt_km": 730.0297446269406, "timestamp": "2025-12-14T14:39:29.765667+00:00", "meta": {"OBJECT_NAME": "COSMOS 2251 DEB", "OBJECT_ID": "1993-036AQS", "EPOCH": "2025-12-09T19:36:39.465216", "MEAN_MOTION": 14.34317214, "ECCENTRICITY": 0.01465875, "INCLINATION": 73.9489, "RA_OF_ASC_NODE": 183.1196, "ARG_OF_PERICENTER": 330.1589, "MEAN_ANOMALY": 29.126, "EPHEMERIS_TYPE": 0, "CLASSIFICATION_TYPE": "U", "NORAD_CAT_ID": 35721, "ELEMENT_SET_NO": 999, "REV_AT_EPOCH": 57747, "BSTAR": 0.0018396061, "MEAN_MOTION_DOT": 5.808e-05, "MEAN_MOTION_DDOT": 0}, "tle": {"line1": "1 35721U 93036AQS 25343.81712344  .00005808  00000+0  18396-2 0  9995", "line2": "2 35721  73.9489 183.1196 0146587 330.1589  29.1260 14.34317214577479"}}, "geometry": {"type": "Point", "coordinates": [53.45122994723401, -71.46235100388476]}}, {"type": "Feature", "properties": {"norad_id": 35724, "name": "COSMOS 2251 DEB", "group": "cosmos-2251-debris", "lat": 3.561617165389243, "lon": -59.857884549004545, "alt_km": 699.8594744387183, "timestamp": "2025-12-14T14:39:29.765677+00:00", "meta": {"OBJECT_NAME": "COSMOS 2251 DEB", "OBJECT_ID": "1993-036AQV", "EPOCH": "2025-12-11T07:36:26.462016", "MEAN_MOTION": 14.58193223, "ECCENTRICITY": 0.00589289, "INCLINATION": 74.0322, "RA_OF_ASC_NODE": 305.3872, "ARG_OF_PERICENTER": 99.5025, "MEAN_ANOMALY": 261.2806, "EPHEMERIS_TYPE": 0, "CLASSIFICATION_TYPE": "U", "NORAD_CAT_ID": 35724, "ELEMENT_SET_NO": 999, "REV_AT_EPOCH": 87508, "BSTAR": 0.00043935858, "MEAN_MOTION_DOT": 2.046e-05, "MEAN_MOTION_DDOT": 0}, "tle": {"line1": "1 35724U 93036AQV 25345.31697294  .00002046  00000+0  43936-3 0  9991", "line2": "2 35724  74.0322 305.3872 0058928  99.5025 261.2806 14.58193223875082"}}, "geometry": {"type": "Point", "coordinates": [-59.857884549004545, 3.561617165389243]}}]}